     2.100          NAVIGATION                              RINEX VERSION / TYPE
fic2rin                                 09/22/2008 02:47:07 PGM / RUN BY / DATE
                                                            END OF HEADER
10 08  9 21 22  0  0.0 -.514462590218D-05 -.454747350886D-12  .000000000000D+00
     .850000000000D+02  .910000000000D+02  .445232831449D-08 -.234095572899D+01
     .473298132420D-05  .801947817672D-02  .599585473537D-05  .515370662117D+04
     .792000000000D+05  .447034835815D-07 -.121899401970D+01 -.763684511185D-07
     .961700050439D+00  .266343750000D+03  .557851770160D+00 -.796140305296D-08
    -.842892252703D-10  .100000000000D+01  .149800000000D+04  .000000000000D+00
     .340000000000D+01  .000000000000D+00 -.232830643654D-08  .850000000000D+02
     .720060000000D+05  .400000000000D+01
11 08  9 21 22  0  0.0  .194096937776D-04 -.795807864051D-12  .000000000000D+00
     .109000000000D+03  .196875000000D+02  .646562646215D-08  .105138196114D+01
     .125542283058D-05  .851875322405D-02  .804103910923D-05  .515364643288D+04
     .792000000000D+05 -.279396772385D-07 -.248975577141D+01  .104308128357D-06
     .890726372089D+00  .186000000000D+03  .616767295039D+00 -.897073080980D-08
    -.430732227440D-09  .100000000000D+01  .149800000000D+04  .000000000000D+00
     .340000000000D+01  .000000000000D+00 -.121071934700D-07  .109000000000D+03
     .720060000000D+05  .400000000000D+01
12 08  9 21 22  0  0.0 -.349966809154D-03  .170530256582D-11  .000000000000D+00
     .610000000000D+02 -.524062500000D+02  .448054377549D-08  .149244072578D+01
    -.268407166004D-05  .301074411254D-02  .904314219952D-05  .515382296753D+04
     .792000000000D+05  .745058059692D-07  .190039578576D+01  .447034835815D-07
     .964588883547D+00  .211125000000D+03 -.856510163578D+00 -.783568353053D-08
     .482520098899D-09  .100000000000D+01  .149800000000D+04  .000000000000D+00
     .240000000000D+01  .000000000000D+00 -.116415321827D-07  .610000000000D+02
     .720060000000D+05  .400000000000D+01
14 08  9 21 22  0  0.0 -.216889660805D-03  .477484718431D-11  .000000000000D+00
     .170000000000D+02  .734375000000D+01  .379122934849D-08 -.292528003754D+01
     .474974513054D-06  .421638716944D-02  .301189720631D-05  .515373798561D+04
     .792000000000D+05 -.353902578354D-07 -.164657364880D+00 -.204890966415D-07
     .989371104946D+00  .335343750000D+03 -.217818487451D+01 -.792961601462D-08
     .107147320259D-11  .100000000000D+01  .149800000000D+04  .000000000000D+00
     .240000000000D+01  .000000000000D+00 -.931322574615D-08  .170000000000D+02
     .720060000000D+05  .400000000000D+01
15 08  9 21 22  0  0.0 -.181299634278D-03 -.648014975013D-11  .000000000000D+00
     .770000000000D+02  .865625000000D+01  .461054919074D-08 -.205872704229D+01
     .493600964546D-06  .923254294321D-03  .254437327385D-05  .515370510864D+04
     .792000000000D+05  .130385160446D-07 -.209343730750D+00 -.335276126862D-07
     .957630806287D+00  .329406250000D+03 -.117766675366D+01 -.838284917932D-08
    -.428589281035D-10  .100000000000D+01  .149800000000D+04  .000000000000D+00
     .240000000000D+01  .000000000000D+00 -.977888703346D-08  .770000000000D+02
     .720060000000D+05  .400000000000D+01
16 08  9 21 22  0  0.0  .105692073703D-03 -.204636307899D-11  .000000000000D+00
     .480000000000D+02 -.565312500000D+02  .438875423780D-08 -.111856062811D+01
    -.321120023727D-05  .472523726057D-02  .846944749355D-05  .515367209816D+04
     .792000000000D+05 -.745058059692D-08  .191696535915D+01 -.521540641785D-07
     .966210932004D+00  .219281250000D+03 -.395286502481D+00 -.787175646168D-08
     .465019369923D-09  .100000000000D+01  .149800000000D+04  .000000000000D+00
     .240000000000D+01  .000000000000D+00 -.977888703346D-08  .480000000000D+02
     .720060000000D+05  .400000000000D+01
17 08  9 21 22  0  0.0  .390447676182D-04  .227373675443D-12  .000000000000D+00
     .380000000000D+02 -.496875000000D+01  .486913139030D-08 -.228254203329D+01
    -.249594449997D-06  .382989260834D-02  .757910311222D-05  .515358687973D+04
     .792000000000D+05  .502914190292D-07  .295834619495D+01 -.141561031342D-06
     .959988209534D+00  .233031250000D+03 -.278528351575D+01 -.803033449566D-08
     .667884962947D-10  .100000000000D+01  .149800000000D+04  .000000000000D+00
     .240000000000D+01  .000000000000D+00 -.102445483208D-07  .380000000000D+02
     .720060000000D+05  .400000000000D+01
18 08  9 21 22  0  0.0 -.131428241730D-03  .409272615798D-11  .000000000000D+00
     .520000000000D+02  .106906250000D+03  .480091426306D-08 -.955791482312D+00
     .547431409359D-05  .988416559994D-02  .627525150776D-05  .515372353363D+04
     .792000000000D+05  .236555933952D-06 -.120981184467D+01  .121071934700D-06
     .945781349784D+00  .253531250000D+03 -.246268147337D+01 -.830498879326D-08
    -.207865801302D-09  .100000000000D+01  .149800000000D+04  .000000000000D+00
     .240000000000D+01  .000000000000D+00 -.107102096081D-07  .520000000000D+02
     .720060000000D+05  .400000000000D+01
19 08  9 21 22  0  0.0  .355313532054D-04  .113686837722D-12  .000000000000D+00
     .680000000000D+02 -.106250000000D+01  .490806158332D-08 -.282198724529D+01
     .117346644402D-06  .490818498656D-02  .770762562752D-05  .515372815704D+04
     .792000000000D+05 -.949949026108D-07  .301508153009D+01  .298023223877D-07
     .957768646817D+00  .229093750000D+03 -.486889853671D+00 -.793461622290D-08
     .128219626576D-09  .100000000000D+01  .149800000000D+04  .000000000000D+00
     .240000000000D+01  .000000000000D+00 -.144354999065D-07  .680000000000D+02
     .720060000000D+05  .400000000000D+01
20 08  9 21 22  0  0.0  .103992410004D-03 -.102318153949D-11  .000000000000D+00
     .750000000000D+02  .824687500000D+02  .489948979770D-08 -.893710594771D+00
     .424869358540D-05  .351874751505D-02  .694207847118D-05  .515377092743D+04
     .792000000000D+05 -.465661287308D-07 -.126350916710D+01  .521540641785D-07
     .945307348234D+00  .235656250000D+03  .136476826622D+01 -.830641742420D-08
    -.215723271454D-09  .100000000000D+01  .149800000000D+04  .000000000000D+00
     .240000000000D+01  .000000000000D+00 -.651925802231D-08  .750000000000D+02
     .720060000000D+05  .400000000000D+01
21 08  9 21 22  0  0.0  .497098080814D-04 -.147792889038D-11  .000000000000D+00
     .370000000000D+02  .454687500000D+02  .526950521033D-08  .246974207193D+00
     .239163637161D-05  .143020314863D-01  .845454633236D-05  .515368396950D+04
     .792000000000D+05  .894069671631D-07 -.226865387171D+01  .130385160446D-06
     .935494156664D+00  .200718750000D+03 -.267766522145D+01 -.843177978890D-08
    -.474305471012D-09  .100000000000D+01  .149800000000D+04  .000000000000D+00
     .240000000000D+01  .000000000000D+00 -.116415321827D-07  .370000000000D+02
     .720060000000D+05  .400000000000D+01
22 08  9 21 22  0  0.0  .210810452700D-03 -.227373675443D-12  .000000000000D+00
     .950000000000D+02  .112812500000D+03  .477377027526D-08 -.217022232112D+01
     .574439764023D-05  .514424068388D-02  .665709376335D-05  .515367003059D+04
     .792000000000D+05  .856816768646D-07 -.120357618416D+01 -.447034835815D-07
     .943432336372D+00  .244062500000D+03 -.182951190133D+01 -.813426739632D-08
    -.165721188667D-09  .100000000000D+01  .149800000000D+04  .000000000000D+00
     .485000000000D+01  .000000000000D+00 -.176951289177D-07  .950000000000D+02
     .720060000000D+05  .400000000000D+01
23 08  9 21 22  0  0.0  .374022405595D-03  .136424205266D-11  .000000000000D+00
     .200000000000D+02  .190000000000D+02  .424374819772D-08  .279307243685D+01
     .959262251854D-06  .587284879293D-02  .344775617123D-05  .515369518661D+04
     .792000000000D+05 -.409781932831D-07 -.192824227194D+00  .819563865662D-07
     .971453004894D+00  .320468750000D+03  .283745476592D+01 -.806247869174D-08
    -.835749098019D-10  .100000000000D+01  .149800000000D+04  .000000000000D+00
     .240000000000D+01  .000000000000D+00 -.200234353542D-07  .200000000000D+02
     .720060000000D+05  .400000000000D+01
24 08  9 21 22  0  0.0  .127143692225D-03  .306954461848D-11  .000000000000D+00
     .480000000000D+02  .465312500000D+02  .489377527395D-08 -.109017161729D+01
     .235624611378D-05  .749472156167D-02  .890716910362D-05  .515366145325D+04
     .792000000000D+05  .391155481339D-07 -.224070276494D+01 -.171363353729D-06
     .952127309936D+00  .204312500000D+03 -.707014088146D+00 -.817248327387D-08
    -.315370279295D-09  .100000000000D+01  .149800000000D+04  .000000000000D+00
     .340000000000D+01  .000000000000D+00 -.139698386192D-08  .480000000000D+02
     .720060000000D+05  .400000000000D+01
26 08  9 21 22  0  0.0  .328917521983D-03  .545696821064D-11  .000000000000D+00
     .820000000000D+02 -.446875000000D+01  .367658171581D-08  .229441387975D+01
    -.562518835068D-06  .191535643535D-01  .316277146339D-05  .515363204193D+04
     .792000000000D+05 -.558793544769D-08 -.148359736259D+00 -.406056642532D-06
     .993620386037D+00  .335656250000D+03  .954670190714D+00 -.773603652269D-08
    -.396445084958D-10  .100000000000D+01  .149800000000D+04  .000000000000D+00
     .240000000000D+01  .000000000000D+00 -.605359673500D-08  .820000000000D+02
     .720060000000D+05  .400000000000D+01
27 08  9 21 22  0  0.0  .219362787902D-03  .284217094304D-11  .000000000000D+00
     .370000000000D+02 -.635312500000D+02  .419838916547D-08 -.621058305868D+00
    -.323541462421D-05  .211833518697D-01  .635348260403D-05  .515373200607D+04
     .792000000000D+05 -.238418579102D-06  .790114709301D+00  .206753611565D-06
     .970994137232D+00  .267125000000D+03 -.168589517370D+01 -.837677749783D-08
     .186793494985D-09  .100000000000D+01  .149800000000D+04  .000000000000D+00
     .340000000000D+01  .000000000000D+00 -.419095158577D-08  .370000000000D+02
     .720060000000D+05  .400000000000D+01
